<?xml version="1.0" encoding="UTF-8"?>
<ndm xmlns:xsi="http://www.w3.org/2001/XMLSchema-instance" xsi:noNamespaceSchemaLocation="https://sanaregistry.org/r/ndmxml_unqualified/ndmxml-2.0.0-master-2.0.xsd">
<omm id="CCSDS_OMM_VERS" version="2.0">
<header><CREATION_DATE/><ORIGINATOR/></header><body><segment><metadata><OBJECT_NAME>IRIDIUM 921</OBJECT_NAME><OBJECT_ID>1997-034E</OBJECT_ID><CENTER_NAME>EARTH</CENTER_NAME><REF_FRAME>TEME</REF_FRAME><TIME_SYSTEM>UTC</TIME_SYSTEM><MEAN_ELEMENT_THEORY>SGP4</MEAN_ELEMENT_THEORY></metadata><data><meanElements><EPOCH>2024-06-30T20:04:34.227264</EPOCH><MEAN_MOTION>15.40362553</MEAN_MOTION><ECCENTRICITY>.0004882</ECCENTRICITY><INCLINATION>86.3801</INCLINATION><RA_OF_ASC_NODE>281.3512</RA_OF_ASC_NODE><ARG_OF_PERICENTER>174.4402</ARG_OF_PERICENTER><MEAN_ANOMALY>185.6908</MEAN_ANOMALY></meanElements><tleParameters><EPHEMERIS_TYPE>0</EPHEMERIS_TYPE><CLASSIFICATION_TYPE>U</CLASSIFICATION_TYPE><NORAD_CAT_ID>24873</NORAD_CAT_ID><ELEMENT_SET_NO>999</ELEMENT_SET_NO><REV_AT_EPOCH>47728</REV_AT_EPOCH><BSTAR>.98574E-3</BSTAR><MEAN_MOTION_DOT>.39963E-3</MEAN_MOTION_DOT><MEAN_MOTION_DDOT>0</MEAN_MOTION_DDOT></tleParameters></data></segment></body></omm>
<omm id="CCSDS_OMM_VERS" version="2.0">
<header><CREATION_DATE/><ORIGINATOR/></header><body><segment><metadata><OBJECT_NAME>IRIDIUM 26</OBJECT_NAME><OBJECT_ID>1997-043A</OBJECT_ID><CENTER_NAME>EARTH</CENTER_NAME><REF_FRAME>TEME</REF_FRAME><TIME_SYSTEM>UTC</TIME_SYSTEM><MEAN_ELEMENT_THEORY>SGP4</MEAN_ELEMENT_THEORY></metadata><data><meanElements><EPOCH>2024-06-30T21:54:39.266208</EPOCH><MEAN_MOTION>14.36419181</MEAN_MOTION><ECCENTRICITY>.0002287</ECCENTRICITY><INCLINATION>86.3953</INCLINATION><RA_OF_ASC_NODE>257.9951</RA_OF_ASC_NODE><ARG_OF_PERICENTER>99.8545</ARG_OF_PERICENTER><MEAN_ANOMALY>260.2911</MEAN_ANOMALY></meanElements><tleParameters><EPHEMERIS_TYPE>0</EPHEMERIS_TYPE><CLASSIFICATION_TYPE>U</CLASSIFICATION_TYPE><NORAD_CAT_ID>24903</NORAD_CAT_ID><ELEMENT_SET_NO>999</ELEMENT_SET_NO><REV_AT_EPOCH>40630</REV_AT_EPOCH><BSTAR>.25368E-3</BSTAR><MEAN_MOTION_DOT>.762E-5</MEAN_MOTION_DOT><MEAN_MOTION_DDOT>0</MEAN_MOTION_DDOT></tleParameters></data></segment></body></omm>
<omm id="CCSDS_OMM_VERS" version="2.0">
<header><CREATION_DATE/><ORIGINATOR/></header><body><segment><metadata><OBJECT_NAME>IRIDIUM 22</OBJECT_NAME><OBJECT_ID>1997-043E</OBJECT_ID><CENTER_NAME>EARTH</CENTER_NAME><REF_FRAME>TEME</REF_FRAME><TIME_SYSTEM>UTC</TIME_SYSTEM><MEAN_ELEMENT_THEORY>SGP4</MEAN_ELEMENT_THEORY></metadata><data><meanElements><EPOCH>2024-06-30T18:28:56.176032</EPOCH><MEAN_MOTION>14.35306600</MEAN_MOTION><ECCENTRICITY>.0002224</ECCENTRICITY><INCLINATION>86.3956</INCLINATION><RA_OF_ASC_NODE>261.3034</RA_OF_ASC_NODE><ARG_OF_PERICENTER>93.7667</ARG_OF_PERICENTER><MEAN_ANOMALY>266.3783</MEAN_ANOMALY></meanElements><tleParameters><EPHEMERIS_TYPE>0</EPHEMERIS_TYPE><CLASSIFICATION_TYPE>U</CLASSIFICATION_TYPE><NORAD_CAT_ID>24907</NORAD_CAT_ID><ELEMENT_SET_NO>999</ELEMENT_SET_NO><REV_AT_EPOCH>40635</REV_AT_EPOCH><BSTAR>.23855E-3</BSTAR><MEAN_MOTION_DOT>.703E-5</MEAN_MOTION_DOT><MEAN_MOTION_DDOT>0</MEAN_MOTION_DDOT></tleParameters></data></segment></body></omm>
<omm id="CCSDS_OMM_VERS" version="2.0">
<header><CREATION_DATE/><ORIGINATOR/></header><body><segment><metadata><OBJECT_NAME>DUMMY MASS 1</OBJECT_NAME><OBJECT_ID>1997-048A</OBJECT_ID><CENTER_NAME>EARTH</CENTER_NAME><REF_FRAME>TEME</REF_FRAME><TIME_SYSTEM>UTC</TIME_SYSTEM><MEAN_ELEMENT_THEORY>SGP4</MEAN_ELEMENT_THEORY></metadata><data><meanElements><EPOCH>2024-06-30T20:39:17.867808</EPOCH><MEAN_MOTION>14.86264339</MEAN_MOTION><ECCENTRICITY>.0005254</ECCENTRICITY><INCLINATION>86.3346</INCLINATION><RA_OF_ASC_NODE>297.6700</RA_OF_ASC_NODE><ARG_OF_PERICENTER>329.1247</ARG_OF_PERICENTER><MEAN_ANOMALY>30.9668</MEAN_ANOMALY></meanElements><tleParameters><EPHEMERIS_TYPE>0</EPHEMERIS_TYPE><CLASSIFICATION_TYPE>U</CLASSIFICATION_TYPE><NORAD_CAT_ID>24925</NORAD_CAT_ID><ELEMENT_SET_NO>999</ELEMENT_SET_NO><REV_AT_EPOCH>45293</REV_AT_EPOCH><BSTAR>.94249E-4</BSTAR><MEAN_MOTION_DOT>.856E-5</MEAN_MOTION_DOT><MEAN_MOTION_DDOT>0</MEAN_MOTION_DDOT></tleParameters></data></segment></body></omm>
<omm id="CCSDS_OMM_VERS" version="2.0">
<header><CREATION_DATE/><ORIGINATOR/></header><body><segment><metadata><OBJECT_NAME>DUMMY MASS 2</OBJECT_NAME><OBJECT_ID>1997-048B</OBJECT_ID><CENTER_NAME>EARTH</CENTER_NAME><REF_FRAME>TEME</REF_FRAME><TIME_SYSTEM>UTC</TIME_SYSTEM><MEAN_ELEMENT_THEORY>SGP4</MEAN_ELEMENT_THEORY></metadata><data><meanElements><EPOCH>2024-06-30T19:58:16.827744</EPOCH><MEAN_MOTION>14.86022144</MEAN_MOTION><ECCENTRICITY>.0006433</ECCENTRICITY><INCLINATION>86.3348</INCLINATION><RA_OF_ASC_NODE>299.2290</RA_OF_ASC_NODE><ARG_OF_PERICENTER>340.1416</ARG_OF_PERICENTER><MEAN_ANOMALY>19.9557</MEAN_ANOMALY></meanElements><tleParameters><EPHEMERIS_TYPE>0</EPHEMERIS_TYPE><CLASSIFICATION_TYPE>U</CLASSIFICATION_TYPE><NORAD_CAT_ID>24926</NORAD_CAT_ID><ELEMENT_SET_NO>999</ELEMENT_SET_NO><REV_AT_EPOCH>45271</REV_AT_EPOCH><BSTAR>.94453E-4</BSTAR><MEAN_MOTION_DOT>.853E-5</MEAN_MOTION_DOT><MEAN_MOTION_DDOT>0</MEAN_MOTION_DDOT></tleParameters></data></segment></body></omm>
<omm id="CCSDS_OMM_VERS" version="2.0">
<header><CREATION_DATE/><ORIGINATOR/></header><body><segment><metadata><OBJECT_NAME>IRIDIUM 29</OBJECT_NAME><OBJECT_ID>1997-051A</OBJECT_ID><CENTER_NAME>EARTH</CENTER_NAME><REF_FRAME>TEME</REF_FRAME><TIME_SYSTEM>UTC</TIME_SYSTEM><MEAN_ELEMENT_THEORY>SGP4</MEAN_ELEMENT_THEORY></metadata><data><meanElements><EPOCH>2024-06-30T20:07:20.123904</EPOCH><MEAN_MOTION>14.35755780</MEAN_MOTION><ECCENTRICITY>.0002048</ECCENTRICITY><INCLINATION>86.3955</INCLINATION><RA_OF_ASC_NODE>291.1801</RA_OF_ASC_NODE><ARG_OF_PERICENTER>88.9484</ARG_OF_PERICENTER><MEAN_ANOMALY>271.1947</MEAN_ANOMALY></meanElements><tleParameters><EPHEMERIS_TYPE>0</EPHEMERIS_TYPE><CLASSIFICATION_TYPE>U</CLASSIFICATION_TYPE><NORAD_CAT_ID>24944</NORAD_CAT_ID><ELEMENT_SET_NO>999</ELEMENT_SET_NO><REV_AT_EPOCH>40284</REV_AT_EPOCH><BSTAR>.26116E-3</BSTAR><MEAN_MOTION_DOT>.774E-5</MEAN_MOTION_DOT><MEAN_MOTION_DDOT>0</MEAN_MOTION_DDOT></tleParameters></data></segment></body></omm>
<omm id="CCSDS_OMM_VERS" version="2.0">
<header><CREATION_DATE/><ORIGINATOR/></header><body><segment><metadata><OBJECT_NAME>IRIDIUM 33</OBJECT_NAME><OBJECT_ID>1997-051C</OBJECT_ID><CENTER_NAME>EARTH</CENTER_NAME><REF_FRAME>TEME</REF_FRAME><TIME_SYSTEM>UTC</TIME_SYSTEM><MEAN_ELEMENT_THEORY>SGP4</MEAN_ELEMENT_THEORY></metadata><data><meanElements><EPOCH>2024-06-30T19:23:53.918016</EPOCH><MEAN_MOTION>14.34403388</MEAN_MOTION><ECCENTRICITY>.0009418</ECCENTRICITY><INCLINATION>86.3870</INCLINATION><RA_OF_ASC_NODE>290.4432</RA_OF_ASC_NODE><ARG_OF_PERICENTER>135.0842</ARG_OF_PERICENTER><MEAN_ANOMALY>225.1118</MEAN_ANOMALY></meanElements><tleParameters><EPHEMERIS_TYPE>0</EPHEMERIS_TYPE><CLASSIFICATION_TYPE>U</CLASSIFICATION_TYPE><NORAD_CAT_ID>24946</NORAD_CAT_ID><ELEMENT_SET_NO>999</ELEMENT_SET_NO><REV_AT_EPOCH>40236</REV_AT_EPOCH><BSTAR>.20621E-3</BSTAR><MEAN_MOTION_DOT>.6E-5</MEAN_MOTION_DOT><MEAN_MOTION_DDOT>0</MEAN_MOTION_DDOT></tleParameters></data></segment></body></omm>
<omm id="CCSDS_OMM_VERS" version="2.0">
<header><CREATION_DATE/><ORIGINATOR/></header><body><segment><metadata><OBJECT_NAME>IRIDIUM 28</OBJECT_NAME><OBJECT_ID>1997-051E</OBJECT_ID><CENTER_NAME>EARTH</CENTER_NAME><REF_FRAME>TEME</REF_FRAME><TIME_SYSTEM>UTC</TIME_SYSTEM><MEAN_ELEMENT_THEORY>SGP4</MEAN_ELEMENT_THEORY></metadata><data><meanElements><EPOCH>2024-06-30T19:59:55.204512</EPOCH><MEAN_MOTION>14.36710183</MEAN_MOTION><ECCENTRICITY>.0002414</ECCENTRICITY><INCLINATION>86.3959</INCLINATION><RA_OF_ASC_NODE>288.8974</RA_OF_ASC_NODE><ARG_OF_PERICENTER>103.6703</ARG_OF_PERICENTER><MEAN_ANOMALY>256.4763</MEAN_ANOMALY></meanElements><tleParameters><EPHEMERIS_TYPE>0</EPHEMERIS_TYPE><CLASSIFICATION_TYPE>U</CLASSIFICATION_TYPE><NORAD_CAT_ID>24948</NORAD_CAT_ID><ELEMENT_SET_NO>999</ELEMENT_SET_NO><REV_AT_EPOCH>40338</REV_AT_EPOCH><BSTAR>.27123E-3</BSTAR><MEAN_MOTION_DOT>.818E-5</MEAN_MOTION_DOT><MEAN_MOTION_DDOT>0</MEAN_MOTION_DDOT></tleParameters></data></segment></body></omm>

</ndm>
