IRIDIUM 921             
1 24873U 97034E   24182.83650726  .00039963  00000+0  98574-3 0  9996
2 24873  86.3801 281.3512 0004882 174.4402 185.6908 15.40362553477287
IRIDIUM 26              
1 24903U 97043A   24182.91295447  .00000762  00000+0  25368-3 0  9990
2 24903  86.3953 257.9951 0002287  99.8545 260.2911 14.36419181406303
IRIDIUM 22              
1 24907U 97043E   24182.77009463  .00000703  00000+0  23855-3 0  9993
2 24907  86.3956 261.3034 0002224  93.7667 266.3783 14.35306600406359
DUMMY MASS 1            
1 24925U 97048A   24182.86062347  .00000856  00000+0  94249-4 0  9993
2 24925  86.3346 297.6700 0005254 329.1247  30.9668 14.86264339452930
DUMMY MASS 2            
1 24926U 97048B   24182.83213921  .00000853  00000+0  94453-4 0  9991
2 24926  86.3348 299.2290 0006433 340.1416  19.9557 14.86022144452712
IRIDIUM 29              
1 24944U 97051A   24182.83842736  .00000774  00000+0  26116-3 0  9999
2 24944  86.3955 291.1801 0002048  88.9484 271.1947 14.35755780402842
IRIDIUM 33              
1 24946U 97051C   24182.80826294  .00000600  00000+0  20621-3 0  9992
2 24946  86.3870 290.4432 0009418 135.0842 225.1118 14.34403388402361
IRIDIUM 28              
1 24948U 97051E   24182.83327783  .00000818  00000+0  27123-3 0  9991
2 24948  86.3959 288.8974 0002414 103.6703 256.4763 14.36710183403381
